FENGYUN 1C DEB          
1 31389U 99025BSV 17345.96541878  .00001218  00000-0  66690-3 0  9999
2 31389  99.0893  25.1493 0060416 264.8889 214.6465 14.12967703549422
